{
  "norad_id": 68727,
  "name": "STARLINK-37270",
  "history": [
    {
      "epoch": "2026-04-23T16:47:56.207040Z",
      "apogee_km": 309.2611557989576,
      "perigee_km": 308.7949266522837,
      "latitude_deg": 4.040481079962696e-05,
      "longitude_deg": 91.42710422815637,
      "height_km": 309.72598970232593,
      "semi_major_axis_km": 6687.16504122562,
      "eccentricity": 3.486e-05,
      "inclination_deg": 53.1594,
      "raan_deg": 195.1547,
      "arg_perigee_deg": 343.9806,
      "mean_anomaly_deg": 16.1209,
      "mean_motion_rev_day": 15.87594915
    }
  ]
}