STARLINK-37270          
1 68727U 26081AE  26113.69995610 -.00438982  00000+0 -16917-2 0  9996
2 68727  53.1594 195.1547 0000348 343.9806  16.1209 15.87594915  1496
